CCSDS_OMM_VERS = 2.0
CREATION_DATE  = 
ORIGINATOR     = 

OBJECT_NAME    = SOYUZ-MS 28
OBJECT_ID      = 2025-275A
CENTER_NAME    = EARTH
REF_FRAME      = TEME
TIME_SYSTEM    = UTC
MEAN_ELEMENT_THEORY = SGP/SGP4

EPOCH          = 2025-12-13T21:29:24.134208
MEAN_MOTION    = 15.49578000
ECCENTRICITY   = .00032568
INCLINATION    = 51.6304
RA_OF_ASC_NODE = 136.7564
ARG_OF_PERICENTER = 246.2023
MEAN_ANOMALY   = 113.8624

EPHEMERIS_TYPE = 0
CLASSIFICATION_TYPE = U
NORAD_CAT_ID   = 66664
ELEMENT_SET_NO = 999
REV_AT_EPOCH   = 128
BSTAR          = .22109287E-3
MEAN_MOTION_DOT = .11998E-3
MEAN_MOTION_DDOT = 0

CCSDS_OMM_VERS = 2.0
CREATION_DATE  = 
ORIGINATOR     = 

OBJECT_NAME    = 1998-067XS
OBJECT_ID      = 1998-067XS
CENTER_NAME    = EARTH
REF_FRAME      = TEME
TIME_SYSTEM    = UTC
MEAN_ELEMENT_THEORY = SGP/SGP4

EPOCH          = 2025-12-13T19:47:52.336320
MEAN_MOTION    = 15.50642629
ECCENTRICITY   = .00035104
INCLINATION    = 51.6303
RA_OF_ASC_NODE = 137.0364
ARG_OF_PERICENTER = 208.0686
MEAN_ANOMALY   = 152.0114

EPHEMERIS_TYPE = 0
CLASSIFICATION_TYPE = U
NORAD_CAT_ID   = 66906
ELEMENT_SET_NO = 999
REV_AT_EPOCH   = 178
BSTAR          = .53972464E-3
MEAN_MOTION_DOT = .31181E-3
MEAN_MOTION_DDOT = 0

CCSDS_OMM_VERS = 2.0
CREATION_DATE  = 
ORIGINATOR     = 

OBJECT_NAME    = 1998-067XT
OBJECT_ID      = 1998-067XT
CENTER_NAME    = EARTH
REF_FRAME      = TEME
TIME_SYSTEM    = UTC
MEAN_ELEMENT_THEORY = SGP/SGP4

EPOCH          = 2025-12-13T16:37:31.235232
MEAN_MOTION    = 15.51604707
ECCENTRICITY   = .00043667
INCLINATION    = 51.6303
RA_OF_ASC_NODE = 137.6541
ARG_OF_PERICENTER = 232.3065
MEAN_ANOMALY   = 127.7529

EPHEMERIS_TYPE = 0
CLASSIFICATION_TYPE = U
NORAD_CAT_ID   = 66907
ELEMENT_SET_NO = 999
REV_AT_EPOCH   = 176
BSTAR          = .11074189E-2
MEAN_MOTION_DOT = .67037E-3
MEAN_MOTION_DDOT = 0

CCSDS_OMM_VERS = 2.0
CREATION_DATE  = 
ORIGINATOR     = 

OBJECT_NAME    = 1998-067XU
OBJECT_ID      = 1998-067XU
CENTER_NAME    = EARTH
REF_FRAME      = TEME
TIME_SYSTEM    = UTC
MEAN_ELEMENT_THEORY = SGP/SGP4

EPOCH          = 2025-12-13T19:42:27.196704
MEAN_MOTION    = 15.51709735
ECCENTRICITY   = .00044517
INCLINATION    = 51.6297
RA_OF_ASC_NODE = 137.0108
ARG_OF_PERICENTER = 232.0279
MEAN_ANOMALY   = 128.0309

EPHEMERIS_TYPE = 0
CLASSIFICATION_TYPE = U
NORAD_CAT_ID   = 66908
ELEMENT_SET_NO = 999
REV_AT_EPOCH   = 178
BSTAR          = .12120961E-2
MEAN_MOTION_DOT = .7376E-3
MEAN_MOTION_DDOT = 0

CCSDS_OMM_VERS = 2.0
CREATION_DATE  = 
ORIGINATOR     = 

OBJECT_NAME    = SILVERSAT
OBJECT_ID      = 1998-067XV
CENTER_NAME    = EARTH
REF_FRAME      = TEME
TIME_SYSTEM    = UTC
MEAN_ELEMENT_THEORY = SGP/SGP4

EPOCH          = 2025-12-13T19:41:48.869664
MEAN_MOTION    = 15.51822369
ECCENTRICITY   = .00043322
INCLINATION    = 51.6299
RA_OF_ASC_NODE = 137.0079
ARG_OF_PERICENTER = 234.1355
MEAN_ANOMALY   = 125.9233

EPHEMERIS_TYPE = 0
CLASSIFICATION_TYPE = U
NORAD_CAT_ID   = 66909
ELEMENT_SET_NO = 999
REV_AT_EPOCH   = 178
BSTAR          = .12407437E-2
MEAN_MOTION_DOT = .7584E-3
MEAN_MOTION_DDOT = 0

CCSDS_OMM_VERS = 2.0
CREATION_DATE  = 
ORIGINATOR     = 

OBJECT_NAME    = 1998-067XW
OBJECT_ID      = 1998-067XW
CENTER_NAME    = EARTH
REF_FRAME      = TEME
TIME_SYSTEM    = UTC
MEAN_ELEMENT_THEORY = SGP/SGP4

EPOCH          = 2025-12-13T19:39:33.068736
MEAN_MOTION    = 15.51931188
ECCENTRICITY   = .00050672
INCLINATION    = 51.6298
RA_OF_ASC_NODE = 136.9978
ARG_OF_PERICENTER = 214.3383
MEAN_ANOMALY   = 145.7280

EPHEMERIS_TYPE = 0
CLASSIFICATION_TYPE = U
NORAD_CAT_ID   = 66910
ELEMENT_SET_NO = 999
REV_AT_EPOCH   = 178
BSTAR          = .11247598E-2
MEAN_MOTION_DOT = .68924E-3
MEAN_MOTION_DDOT = 0

CCSDS_OMM_VERS = 2.0
CREATION_DATE  = 
ORIGINATOR     = 

OBJECT_NAME    = 1998-067XX
OBJECT_ID      = 1998-067XX
CENTER_NAME    = EARTH
REF_FRAME      = TEME
TIME_SYSTEM    = UTC
MEAN_ELEMENT_THEORY = SGP/SGP4

EPOCH          = 2025-12-13T16:32:49.998912
MEAN_MOTION    = 15.52189321
ECCENTRICITY   = .00048024
INCLINATION    = 51.6299
RA_OF_ASC_NODE = 137.6321
ARG_OF_PERICENTER = 215.3057
MEAN_ANOMALY   = 144.7616

EPHEMERIS_TYPE = 0
CLASSIFICATION_TYPE = U
NORAD_CAT_ID   = 66911
ELEMENT_SET_NO = 999
REV_AT_EPOCH   = 175
BSTAR          = .12499181E-2
MEAN_MOTION_DOT = .77443E-3
MEAN_MOTION_DDOT = 0

CCSDS_OMM_VERS = 2.0
CREATION_DATE  = 
ORIGINATOR     = 

OBJECT_NAME    = 1998-067XY
OBJECT_ID      = 1998-067XY
CENTER_NAME    = EARTH
REF_FRAME      = TEME
TIME_SYSTEM    = UTC
MEAN_ELEMENT_THEORY = SGP/SGP4

EPOCH          = 2025-12-13T19:44:43.483200
MEAN_MOTION    = 15.51274122
ECCENTRICITY   = .00044845
INCLINATION    = 51.6301
RA_OF_ASC_NODE = 137.0214
ARG_OF_PERICENTER = 229.4875
MEAN_ANOMALY   = 130.5724

EPHEMERIS_TYPE = 0
CLASSIFICATION_TYPE = U
NORAD_CAT_ID   = 66912
ELEMENT_SET_NO = 999
REV_AT_EPOCH   = 177
BSTAR          = .93164651E-3
MEAN_MOTION_DOT = .55577E-3
MEAN_MOTION_DDOT = 0

