SOYUZ-MS 28             
1 66664U 25275A   25347.89541822  .00011998  00000+0  22109-3 0  9993
2 66664  51.6304 136.7564 0003256 246.2023 113.8624 15.49578000  1281
1998-067XS              
1 66906U 98067XS  25347.82491130  .00031181  00000+0  53972-3 0  9998
2 66906  51.6303 137.0364 0003510 208.0686 152.0114 15.50642629  1780
1998-067XT              
1 66907U 98067XT  25347.69272263  .00067037  00000+0  11074-2 0  9993
2 66907  51.6303 137.6541 0004366 232.3065 127.7529 15.51604707  1768
1998-067XU              
1 66908U 98067XU  25347.82114811  .00073760  00000+0  12121-2 0  9997
2 66908  51.6297 137.0108 0004451 232.0279 128.0309 15.51709735  1782
SILVERSAT               
1 66909U 98067XV  25347.82070451  .00075840  00000+0  12407-2 0  9997
2 66909  51.6299 137.0079 0004332 234.1355 125.9233 15.51822369  1789
1998-067XW              
1 66910U 98067XW  25347.81913274  .00068924  00000+0  11248-2 0  9994
2 66910  51.6298 136.9978 0005067 214.3383 145.7280 15.51931188  1785
1998-067XX              
1 66911U 98067XX  25347.68946758  .00077443  00000+0  12499-2 0  9998
2 66911  51.6299 137.6321 0004802 215.3057 144.7616 15.52189321  1756
1998-067XY              
1 66912U 98067XY  25347.82272550  .00055577  00000+0  93165-3 0  9991
2 66912  51.6301 137.0214 0004484 229.4875 130.5724 15.51274122  1774
